[{"OBJECT_NAME":"STARLINK-35253","OBJECT_ID":"2025-207E","EPOCH":"2026-03-09T17:20:40.173216","MEAN_MOTION":15.05646937,"ECCENTRICITY":8.177e-5,"INCLINATION":97.6021,"RA_OF_ASC_NODE":138.6522,"ARG_OF_PERICENTER":118.2421,"MEAN_ANOMALY":241.8889,"EPHEMERIS_TYPE":0,"CLASSIFICATION_TYPE":"U","NORAD_CAT_ID":65596,"ELEMENT_SET_NO":999,"REV_AT_EPOCH":2805,"BSTAR":0.0001116541,"MEAN_MOTION_DOT":1.551e-5,"MEAN_MOTION_DDOT":0},{"OBJECT_NAME":"COSMOS 2251 DEB","OBJECT_ID":"1993-036BC","EPOCH":"2026-03-09T15:03:07.178688","MEAN_MOTION":15.0931248,"ECCENTRICITY":0.0027782,"INCLINATION":73.8339,"RA_OF_ASC_NODE":121.9492,"ARG_OF_PERICENTER":197.5511,"MEAN_ANOMALY":285.2146,"EPHEMERIS_TYPE":0,"CLASSIFICATION_TYPE":"U","NORAD_CAT_ID":33811,"ELEMENT_SET_NO":999,"REV_AT_EPOCH":91327,"BSTAR":0.0014101,"MEAN_MOTION_DOT":0.00022722,"MEAN_MOTION_DDOT":0}]
